<?xml version="1.0" encoding="UTF-8"?>
<ndm xmlns:xsi="http://www.w3.org/2001/XMLSchema-instance" xsi:noNamespaceSchemaLocation="https://sanaregistry.org/r/ndmxml_unqualified/ndmxml-2.0.0-master-2.0.xsd">
<omm id="CCSDS_OMM_VERS" version="2.0">
<header><CREATION_DATE/><ORIGINATOR/></header><body><segment><metadata><OBJECT_NAME>KUIPER-00016</OBJECT_NAME><OBJECT_ID>2025-088J</OBJECT_ID><CENTER_NAME>EARTH</CENTER_NAME><REF_FRAME>TEME</REF_FRAME><TIME_SYSTEM>UTC</TIME_SYSTEM><MEAN_ELEMENT_THEORY>SGP4</MEAN_ELEMENT_THEORY></metadata><data><meanElements><EPOCH>2025-07-31T14:00:01.999872</EPOCH><MEAN_MOTION>15.08030191</MEAN_MOTION><ECCENTRICITY>.0010305</ECCENTRICITY><INCLINATION>51.8914</INCLINATION><RA_OF_ASC_NODE>11.4104</RA_OF_ASC_NODE><ARG_OF_PERICENTER>68.5642</ARG_OF_PERICENTER><MEAN_ANOMALY>142.8264</MEAN_ANOMALY></meanElements><tleParameters><EPHEMERIS_TYPE>0</EPHEMERIS_TYPE><CLASSIFICATION_TYPE>U</CLASSIFICATION_TYPE><NORAD_CAT_ID>63732</NORAD_CAT_ID><ELEMENT_SET_NO>999</ELEMENT_SET_NO><REV_AT_EPOCH>1455</REV_AT_EPOCH><BSTAR>-.50624E-1</BSTAR><MEAN_MOTION_DOT>-.734483E-2</MEAN_MOTION_DOT><MEAN_MOTION_DDOT>0</MEAN_MOTION_DDOT></tleParameters></data></segment></body></omm>
<omm id="CCSDS_OMM_VERS" version="2.0">
<header><CREATION_DATE/><ORIGINATOR/></header><body><segment><metadata><OBJECT_NAME>KUIPER-00018</OBJECT_NAME><OBJECT_ID>2025-088K</OBJECT_ID><CENTER_NAME>EARTH</CENTER_NAME><REF_FRAME>TEME</REF_FRAME><TIME_SYSTEM>UTC</TIME_SYSTEM><MEAN_ELEMENT_THEORY>SGP4</MEAN_ELEMENT_THEORY></metadata><data><meanElements><EPOCH>2025-07-31T14:00:01.999872</EPOCH><MEAN_MOTION>15.25140641</MEAN_MOTION><ECCENTRICITY>.000662</ECCENTRICITY><INCLINATION>51.8755</INCLINATION><RA_OF_ASC_NODE>6.4208</RA_OF_ASC_NODE><ARG_OF_PERICENTER>80.3354</ARG_OF_PERICENTER><MEAN_ANOMALY>132.5338</MEAN_ANOMALY></meanElements><tleParameters><EPHEMERIS_TYPE>0</EPHEMERIS_TYPE><CLASSIFICATION_TYPE>U</CLASSIFICATION_TYPE><NORAD_CAT_ID>63733</NORAD_CAT_ID><ELEMENT_SET_NO>999</ELEMENT_SET_NO><REV_AT_EPOCH>1462</REV_AT_EPOCH><BSTAR>-.59151E-3</BSTAR><MEAN_MOTION_DOT>-.15352E-3</MEAN_MOTION_DOT><MEAN_MOTION_DDOT>0</MEAN_MOTION_DDOT></tleParameters></data></segment></body></omm>
<omm id="CCSDS_OMM_VERS" version="2.0">
<header><CREATION_DATE/><ORIGINATOR/></header><body><segment><metadata><OBJECT_NAME>KUIPER-00019</OBJECT_NAME><OBJECT_ID>2025-088L</OBJECT_ID><CENTER_NAME>EARTH</CENTER_NAME><REF_FRAME>TEME</REF_FRAME><TIME_SYSTEM>UTC</TIME_SYSTEM><MEAN_ELEMENT_THEORY>SGP4</MEAN_ELEMENT_THEORY></metadata><data><meanElements><EPOCH>2025-07-31T06:00:02.000160</EPOCH><MEAN_MOTION>15.34555450</MEAN_MOTION><ECCENTRICITY>.000431</ECCENTRICITY><INCLINATION>51.8715</INCLINATION><RA_OF_ASC_NODE>7.4537</RA_OF_ASC_NODE><ARG_OF_PERICENTER>100.2362</ARG_OF_PERICENTER><MEAN_ANOMALY>333.3056</MEAN_ANOMALY></meanElements><tleParameters><EPHEMERIS_TYPE>0</EPHEMERIS_TYPE><CLASSIFICATION_TYPE>U</CLASSIFICATION_TYPE><NORAD_CAT_ID>63734</NORAD_CAT_ID><ELEMENT_SET_NO>999</ELEMENT_SET_NO><REV_AT_EPOCH>1458</REV_AT_EPOCH><BSTAR>.16377E-2</BSTAR><MEAN_MOTION_DOT>.55706E-3</MEAN_MOTION_DOT><MEAN_MOTION_DDOT>0</MEAN_MOTION_DDOT></tleParameters></data></segment></body></omm>
<omm id="CCSDS_OMM_VERS" version="2.0">
<header><CREATION_DATE/><ORIGINATOR/></header><body><segment><metadata><OBJECT_NAME>KUIPER-00020</OBJECT_NAME><OBJECT_ID>2025-088M</OBJECT_ID><CENTER_NAME>EARTH</CENTER_NAME><REF_FRAME>TEME</REF_FRAME><TIME_SYSTEM>UTC</TIME_SYSTEM><MEAN_ELEMENT_THEORY>SGP4</MEAN_ELEMENT_THEORY></metadata><data><meanElements><EPOCH>2025-07-31T14:00:01.999872</EPOCH><MEAN_MOTION>15.20721810</MEAN_MOTION><ECCENTRICITY>.0007849</ECCENTRICITY><INCLINATION>51.8808</INCLINATION><RA_OF_ASC_NODE>7.2350</RA_OF_ASC_NODE><ARG_OF_PERICENTER>72.1843</ARG_OF_PERICENTER><MEAN_ANOMALY>65.0916</MEAN_ANOMALY></meanElements><tleParameters><EPHEMERIS_TYPE>0</EPHEMERIS_TYPE><CLASSIFICATION_TYPE>U</CLASSIFICATION_TYPE><NORAD_CAT_ID>63735</NORAD_CAT_ID><ELEMENT_SET_NO>999</ELEMENT_SET_NO><REV_AT_EPOCH>1482</REV_AT_EPOCH><BSTAR>-.91108E-3</BSTAR><MEAN_MOTION_DOT>-.20598E-3</MEAN_MOTION_DOT><MEAN_MOTION_DDOT>0</MEAN_MOTION_DDOT></tleParameters></data></segment></body></omm>
<omm id="CCSDS_OMM_VERS" version="2.0">
<header><CREATION_DATE/><ORIGINATOR/></header><body><segment><metadata><OBJECT_NAME>KUIPER-00021</OBJECT_NAME><OBJECT_ID>2025-088N</OBJECT_ID><CENTER_NAME>EARTH</CENTER_NAME><REF_FRAME>TEME</REF_FRAME><TIME_SYSTEM>UTC</TIME_SYSTEM><MEAN_ELEMENT_THEORY>SGP4</MEAN_ELEMENT_THEORY></metadata><data><meanElements><EPOCH>2025-07-31T14:00:01.999872</EPOCH><MEAN_MOTION>15.18847271</MEAN_MOTION><ECCENTRICITY>.0005724</ECCENTRICITY><INCLINATION>51.8755</INCLINATION><RA_OF_ASC_NODE>7.7867</RA_OF_ASC_NODE><ARG_OF_PERICENTER>80.8777</ARG_OF_PERICENTER><MEAN_ANOMALY>180.9314</MEAN_ANOMALY></meanElements><tleParameters><EPHEMERIS_TYPE>0</EPHEMERIS_TYPE><CLASSIFICATION_TYPE>U</CLASSIFICATION_TYPE><NORAD_CAT_ID>63736</NORAD_CAT_ID><ELEMENT_SET_NO>999</ELEMENT_SET_NO><REV_AT_EPOCH>1464</REV_AT_EPOCH><BSTAR>-.25715E-1</BSTAR><MEAN_MOTION_DOT>-.50731E-2</MEAN_MOTION_DOT><MEAN_MOTION_DDOT>0</MEAN_MOTION_DDOT></tleParameters></data></segment></body></omm>
<omm id="CCSDS_OMM_VERS" version="2.0">
<header><CREATION_DATE/><ORIGINATOR/></header><body><segment><metadata><OBJECT_NAME>KUIPER-00023</OBJECT_NAME><OBJECT_ID>2025-088P</OBJECT_ID><CENTER_NAME>EARTH</CENTER_NAME><REF_FRAME>TEME</REF_FRAME><TIME_SYSTEM>UTC</TIME_SYSTEM><MEAN_ELEMENT_THEORY>SGP4</MEAN_ELEMENT_THEORY></metadata><data><meanElements><EPOCH>2025-07-31T14:00:01.999872</EPOCH><MEAN_MOTION>15.16117691</MEAN_MOTION><ECCENTRICITY>.0010619</ECCENTRICITY><INCLINATION>51.8802</INCLINATION><RA_OF_ASC_NODE>8.4932</RA_OF_ASC_NODE><ARG_OF_PERICENTER>79.4147</ARG_OF_PERICENTER><MEAN_ANOMALY>205.7969</MEAN_ANOMALY></meanElements><tleParameters><EPHEMERIS_TYPE>0</EPHEMERIS_TYPE><CLASSIFICATION_TYPE>U</CLASSIFICATION_TYPE><NORAD_CAT_ID>63737</NORAD_CAT_ID><ELEMENT_SET_NO>999</ELEMENT_SET_NO><REV_AT_EPOCH>1493</REV_AT_EPOCH><BSTAR>-.19432E-2</BSTAR><MEAN_MOTION_DOT>-.381E-3</MEAN_MOTION_DOT><MEAN_MOTION_DDOT>0</MEAN_MOTION_DDOT></tleParameters></data></segment></body></omm>
<omm id="CCSDS_OMM_VERS" version="2.0">
<header><CREATION_DATE/><ORIGINATOR/></header><body><segment><metadata><OBJECT_NAME>KUIPER-00024</OBJECT_NAME><OBJECT_ID>2025-088Q</OBJECT_ID><CENTER_NAME>EARTH</CENTER_NAME><REF_FRAME>TEME</REF_FRAME><TIME_SYSTEM>UTC</TIME_SYSTEM><MEAN_ELEMENT_THEORY>SGP4</MEAN_ELEMENT_THEORY></metadata><data><meanElements><EPOCH>2025-07-30T16:58:35.114304</EPOCH><MEAN_MOTION>15.38566813</MEAN_MOTION><ECCENTRICITY>.0001156</ECCENTRICITY><INCLINATION>51.8737</INCLINATION><RA_OF_ASC_NODE>9.2495</RA_OF_ASC_NODE><ARG_OF_PERICENTER>110.3234</ARG_OF_PERICENTER><MEAN_ANOMALY>249.7877</MEAN_ANOMALY></meanElements><tleParameters><EPHEMERIS_TYPE>0</EPHEMERIS_TYPE><CLASSIFICATION_TYPE>U</CLASSIFICATION_TYPE><NORAD_CAT_ID>63738</NORAD_CAT_ID><ELEMENT_SET_NO>999</ELEMENT_SET_NO><REV_AT_EPOCH>1498</REV_AT_EPOCH><BSTAR>.51059E-3</BSTAR><MEAN_MOTION_DOT>.19404E-3</MEAN_MOTION_DOT><MEAN_MOTION_DDOT>0</MEAN_MOTION_DDOT></tleParameters></data></segment></body></omm>
<omm id="CCSDS_OMM_VERS" version="2.0">
<header><CREATION_DATE/><ORIGINATOR/></header><body><segment><metadata><OBJECT_NAME>KUIPER-00025</OBJECT_NAME><OBJECT_ID>2025-088R</OBJECT_ID><CENTER_NAME>EARTH</CENTER_NAME><REF_FRAME>TEME</REF_FRAME><TIME_SYSTEM>UTC</TIME_SYSTEM><MEAN_ELEMENT_THEORY>SGP4</MEAN_ELEMENT_THEORY></metadata><data><meanElements><EPOCH>2025-07-31T14:00:01.999872</EPOCH><MEAN_MOTION>15.24692569</MEAN_MOTION><ECCENTRICITY>.0008285</ECCENTRICITY><INCLINATION>51.8760</INCLINATION><RA_OF_ASC_NODE>6.4820</RA_OF_ASC_NODE><ARG_OF_PERICENTER>59.7899</ARG_OF_PERICENTER><MEAN_ANOMALY>81.2213</MEAN_ANOMALY></meanElements><tleParameters><EPHEMERIS_TYPE>0</EPHEMERIS_TYPE><CLASSIFICATION_TYPE>U</CLASSIFICATION_TYPE><NORAD_CAT_ID>63739</NORAD_CAT_ID><ELEMENT_SET_NO>999</ELEMENT_SET_NO><REV_AT_EPOCH>1495</REV_AT_EPOCH><BSTAR>-.3325E-1</BSTAR><MEAN_MOTION_DOT>-.774982E-2</MEAN_MOTION_DOT><MEAN_MOTION_DDOT>0</MEAN_MOTION_DDOT></tleParameters></data></segment></body></omm>

</ndm>
