KUIPER-00016            
1 63732U 25088J   25212.58335648 -.00734483  00000+0 -50624-1 0  9996
2 63732  51.8914  11.4104 0010305  68.5642 142.8264 15.08030191 14552
KUIPER-00018            
1 63733U 25088K   25212.58335648 -.00015352  00000+0 -59151-3 0  9990
2 63733  51.8755   6.4208 0006620  80.3354 132.5338 15.25140641 14629
KUIPER-00019            
1 63734U 25088L   25212.25002315  .00055706  00000+0  16377-2 0  9994
2 63734  51.8715   7.4537 0004310 100.2362 333.3056 15.34555450 14588
KUIPER-00020            
1 63735U 25088M   25212.58335648 -.00020598  00000+0 -91108-3 0  9998
2 63735  51.8808   7.2350 0007849  72.1843  65.0916 15.20721810 14825
KUIPER-00021            
1 63736U 25088N   25212.58335648 -.00507310  00000+0 -25715-1 0  9990
2 63736  51.8755   7.7867 0005724  80.8777 180.9314 15.18847271 14643
KUIPER-00023            
1 63737U 25088P   25212.58335648 -.00038100  00000+0 -19432-2 0  9997
2 63737  51.8802   8.4932 0010619  79.4147 205.7969 15.16117691 14930
KUIPER-00024            
1 63738U 25088Q   25211.70735086  .00019404  00000+0  51059-3 0  9997
2 63738  51.8737   9.2495 0001156 110.3234 249.7877 15.38566813 14988
KUIPER-00025            
1 63739U 25088R   25212.58335648 -.00774982  00000+0 -33250-1 0  9997
2 63739  51.8760   6.4820 0008285  59.7899  81.2213 15.24692569 14952
